<?xml version="1.0" encoding="UTF-8"?>
<ndm xmlns:xsi="http://www.w3.org/2001/XMLSchema-instance" xsi:noNamespaceSchemaLocation="https://sanaregistry.org/r/ndmxml_unqualified/ndmxml-2.0.0-master-2.0.xsd">
<omm id="CCSDS_OMM_VERS" version="2.0">
<header><CREATION_DATE/><ORIGINATOR/></header><body><segment><metadata><OBJECT_NAME>COSMOS 2251 DEB</OBJECT_NAME><OBJECT_ID>1993-036AYT</OBJECT_ID><CENTER_NAME>EARTH</CENTER_NAME><REF_FRAME>TEME</REF_FRAME><TIME_SYSTEM>UTC</TIME_SYSTEM><MEAN_ELEMENT_THEORY>SGP4</MEAN_ELEMENT_THEORY></metadata><data><meanElements><EPOCH>2025-11-21T06:49:25.883040</EPOCH><MEAN_MOTION>14.33036464</MEAN_MOTION><ECCENTRICITY>.0090907</ECCENTRICITY><INCLINATION>74.0659</INCLINATION><RA_OF_ASC_NODE>312.2136</RA_OF_ASC_NODE><ARG_OF_PERICENTER>344.9179</ARG_OF_PERICENTER><MEAN_ANOMALY>14.9263</MEAN_ANOMALY></meanElements><tleParameters><EPHEMERIS_TYPE>0</EPHEMERIS_TYPE><CLASSIFICATION_TYPE>U</CLASSIFICATION_TYPE><NORAD_CAT_ID>36366</NORAD_CAT_ID><ELEMENT_SET_NO>999</ELEMENT_SET_NO><REV_AT_EPOCH>85981</REV_AT_EPOCH><BSTAR>.24261E-2</BSTAR><MEAN_MOTION_DOT>.6938E-4</MEAN_MOTION_DOT><MEAN_MOTION_DDOT>0</MEAN_MOTION_DDOT></tleParameters></data></segment></body></omm>
<omm id="CCSDS_OMM_VERS" version="2.0">
<header><CREATION_DATE/><ORIGINATOR/></header><body><segment><metadata><OBJECT_NAME>COSMOS 2251 DEB</OBJECT_NAME><OBJECT_ID>1993-036AYU</OBJECT_ID><CENTER_NAME>EARTH</CENTER_NAME><REF_FRAME>TEME</REF_FRAME><TIME_SYSTEM>UTC</TIME_SYSTEM><MEAN_ELEMENT_THEORY>SGP4</MEAN_ELEMENT_THEORY></metadata><data><meanElements><EPOCH>2025-11-19T14:41:41.384256</EPOCH><MEAN_MOTION>13.86169183</MEAN_MOTION><ECCENTRICITY>.0262519</ECCENTRICITY><INCLINATION>74.1005</INCLINATION><RA_OF_ASC_NODE>270.4244</RA_OF_ASC_NODE><ARG_OF_PERICENTER>348.3619</ARG_OF_PERICENTER><MEAN_ANOMALY>11.1508</MEAN_ANOMALY></meanElements><tleParameters><EPHEMERIS_TYPE>0</EPHEMERIS_TYPE><CLASSIFICATION_TYPE>U</CLASSIFICATION_TYPE><NORAD_CAT_ID>36367</NORAD_CAT_ID><ELEMENT_SET_NO>999</ELEMENT_SET_NO><REV_AT_EPOCH>57209</REV_AT_EPOCH><BSTAR>.12915E-2</BSTAR><MEAN_MOTION_DOT>.1929E-4</MEAN_MOTION_DOT><MEAN_MOTION_DDOT>0</MEAN_MOTION_DDOT></tleParameters></data></segment></body></omm>
<omm id="CCSDS_OMM_VERS" version="2.0">
<header><CREATION_DATE/><ORIGINATOR/></header><body><segment><metadata><OBJECT_NAME>COSMOS 2251 DEB</OBJECT_NAME><OBJECT_ID>1993-036AYW</OBJECT_ID><CENTER_NAME>EARTH</CENTER_NAME><REF_FRAME>TEME</REF_FRAME><TIME_SYSTEM>UTC</TIME_SYSTEM><MEAN_ELEMENT_THEORY>SGP4</MEAN_ELEMENT_THEORY></metadata><data><meanElements><EPOCH>2025-11-20T16:12:40.709088</EPOCH><MEAN_MOTION>14.72923674</MEAN_MOTION><ECCENTRICITY>.0013772</ECCENTRICITY><INCLINATION>74.0302</INCLINATION><RA_OF_ASC_NODE>113.7405</RA_OF_ASC_NODE><ARG_OF_PERICENTER>196.3273</ARG_OF_PERICENTER><MEAN_ANOMALY>163.7457</MEAN_ANOMALY></meanElements><tleParameters><EPHEMERIS_TYPE>0</EPHEMERIS_TYPE><CLASSIFICATION_TYPE>U</CLASSIFICATION_TYPE><NORAD_CAT_ID>36369</NORAD_CAT_ID><ELEMENT_SET_NO>999</ELEMENT_SET_NO><REV_AT_EPOCH>85597</REV_AT_EPOCH><BSTAR>.17386372E-2</BSTAR><MEAN_MOTION_DOT>.11152E-3</MEAN_MOTION_DOT><MEAN_MOTION_DDOT>0</MEAN_MOTION_DDOT></tleParameters></data></segment></body></omm>
<omm id="CCSDS_OMM_VERS" version="2.0">
<header><CREATION_DATE/><ORIGINATOR/></header><body><segment><metadata><OBJECT_NAME>COSMOS 2251 DEB</OBJECT_NAME><OBJECT_ID>1993-036AYY</OBJECT_ID><CENTER_NAME>EARTH</CENTER_NAME><REF_FRAME>TEME</REF_FRAME><TIME_SYSTEM>UTC</TIME_SYSTEM><MEAN_ELEMENT_THEORY>SGP4</MEAN_ELEMENT_THEORY></metadata><data><meanElements><EPOCH>2025-11-14T01:06:27.293472</EPOCH><MEAN_MOTION>14.69794379</MEAN_MOTION><ECCENTRICITY>.00122401</ECCENTRICITY><INCLINATION>74.0138</INCLINATION><RA_OF_ASC_NODE>217.2545</RA_OF_ASC_NODE><ARG_OF_PERICENTER>259.8935</ARG_OF_PERICENTER><MEAN_ANOMALY>100.0855</MEAN_ANOMALY></meanElements><tleParameters><EPHEMERIS_TYPE>0</EPHEMERIS_TYPE><CLASSIFICATION_TYPE>U</CLASSIFICATION_TYPE><NORAD_CAT_ID>36371</NORAD_CAT_ID><ELEMENT_SET_NO>999</ELEMENT_SET_NO><REV_AT_EPOCH>71023</REV_AT_EPOCH><BSTAR>.50441716E-2</BSTAR><MEAN_MOTION_DOT>.30251E-3</MEAN_MOTION_DOT><MEAN_MOTION_DDOT>0</MEAN_MOTION_DDOT></tleParameters></data></segment></body></omm>
<omm id="CCSDS_OMM_VERS" version="2.0">
<header><CREATION_DATE/><ORIGINATOR/></header><body><segment><metadata><OBJECT_NAME>COSMOS 2251 DEB</OBJECT_NAME><OBJECT_ID>1993-036AZG</OBJECT_ID><CENTER_NAME>EARTH</CENTER_NAME><REF_FRAME>TEME</REF_FRAME><TIME_SYSTEM>UTC</TIME_SYSTEM><MEAN_ELEMENT_THEORY>SGP4</MEAN_ELEMENT_THEORY></metadata><data><meanElements><EPOCH>2025-11-16T09:38:00.433824</EPOCH><MEAN_MOTION>14.36020181</MEAN_MOTION><ECCENTRICITY>.00449533</ECCENTRICITY><INCLINATION>74.0133</INCLINATION><RA_OF_ASC_NODE>355.2527</RA_OF_ASC_NODE><ARG_OF_PERICENTER>131.9658</ARG_OF_PERICENTER><MEAN_ANOMALY>244.5172</MEAN_ANOMALY></meanElements><tleParameters><EPHEMERIS_TYPE>0</EPHEMERIS_TYPE><CLASSIFICATION_TYPE>U</CLASSIFICATION_TYPE><NORAD_CAT_ID>36379</NORAD_CAT_ID><ELEMENT_SET_NO>999</ELEMENT_SET_NO><REV_AT_EPOCH>64450</REV_AT_EPOCH><BSTAR>.48213044E-3</BSTAR><MEAN_MOTION_DOT>.1392E-4</MEAN_MOTION_DOT><MEAN_MOTION_DDOT>0</MEAN_MOTION_DDOT></tleParameters></data></segment></body></omm>
<omm id="CCSDS_OMM_VERS" version="2.0">
<header><CREATION_DATE/><ORIGINATOR/></header><body><segment><metadata><OBJECT_NAME>COSMOS 2251 DEB</OBJECT_NAME><OBJECT_ID>1993-036AZN</OBJECT_ID><CENTER_NAME>EARTH</CENTER_NAME><REF_FRAME>TEME</REF_FRAME><TIME_SYSTEM>UTC</TIME_SYSTEM><MEAN_ELEMENT_THEORY>SGP4</MEAN_ELEMENT_THEORY></metadata><data><meanElements><EPOCH>2025-11-20T15:45:21.904992</EPOCH><MEAN_MOTION>14.71961695</MEAN_MOTION><ECCENTRICITY>.01412041</ECCENTRICITY><INCLINATION>73.9702</INCLINATION><RA_OF_ASC_NODE>197.6949</RA_OF_ASC_NODE><ARG_OF_PERICENTER>17.1314</ARG_OF_PERICENTER><MEAN_ANOMALY>343.4551</MEAN_ANOMALY></meanElements><tleParameters><EPHEMERIS_TYPE>0</EPHEMERIS_TYPE><CLASSIFICATION_TYPE>U</CLASSIFICATION_TYPE><NORAD_CAT_ID>36385</NORAD_CAT_ID><ELEMENT_SET_NO>999</ELEMENT_SET_NO><REV_AT_EPOCH>84777</REV_AT_EPOCH><BSTAR>.15757722E-2</BSTAR><MEAN_MOTION_DOT>.11549E-3</MEAN_MOTION_DOT><MEAN_MOTION_DDOT>0</MEAN_MOTION_DDOT></tleParameters></data></segment></body></omm>
<omm id="CCSDS_OMM_VERS" version="2.0">
<header><CREATION_DATE/><ORIGINATOR/></header><body><segment><metadata><OBJECT_NAME>COSMOS 2251 DEB</OBJECT_NAME><OBJECT_ID>1993-036AZT</OBJECT_ID><CENTER_NAME>EARTH</CENTER_NAME><REF_FRAME>TEME</REF_FRAME><TIME_SYSTEM>UTC</TIME_SYSTEM><MEAN_ELEMENT_THEORY>SGP4</MEAN_ELEMENT_THEORY></metadata><data><meanElements><EPOCH>2025-11-19T17:51:15.700608</EPOCH><MEAN_MOTION>14.36869255</MEAN_MOTION><ECCENTRICITY>.00171148</ECCENTRICITY><INCLINATION>74.0365</INCLINATION><RA_OF_ASC_NODE>317.7549</RA_OF_ASC_NODE><ARG_OF_PERICENTER>52.1039</ARG_OF_PERICENTER><MEAN_ANOMALY>127.6978</MEAN_ANOMALY></meanElements><tleParameters><EPHEMERIS_TYPE>0</EPHEMERIS_TYPE><CLASSIFICATION_TYPE>U</CLASSIFICATION_TYPE><NORAD_CAT_ID>36420</NORAD_CAT_ID><ELEMENT_SET_NO>999</ELEMENT_SET_NO><REV_AT_EPOCH>84706</REV_AT_EPOCH><BSTAR>.17525693E-3</BSTAR><MEAN_MOTION_DOT>.493E-5</MEAN_MOTION_DOT><MEAN_MOTION_DDOT>0</MEAN_MOTION_DDOT></tleParameters></data></segment></body></omm>
<omm id="CCSDS_OMM_VERS" version="2.0">
<header><CREATION_DATE/><ORIGINATOR/></header><body><segment><metadata><OBJECT_NAME>COSMOS 2251 DEB</OBJECT_NAME><OBJECT_ID>1993-036BAD</OBJECT_ID><CENTER_NAME>EARTH</CENTER_NAME><REF_FRAME>TEME</REF_FRAME><TIME_SYSTEM>UTC</TIME_SYSTEM><MEAN_ELEMENT_THEORY>SGP4</MEAN_ELEMENT_THEORY></metadata><data><meanElements><EPOCH>2025-11-18T18:53:17.013408</EPOCH><MEAN_MOTION>14.27716249</MEAN_MOTION><ECCENTRICITY>.00969816</ECCENTRICITY><INCLINATION>74.0031</INCLINATION><RA_OF_ASC_NODE>152.0084</RA_OF_ASC_NODE><ARG_OF_PERICENTER>306.8501</ARG_OF_PERICENTER><MEAN_ANOMALY>52.3783</MEAN_ANOMALY></meanElements><tleParameters><EPHEMERIS_TYPE>0</EPHEMERIS_TYPE><CLASSIFICATION_TYPE>U</CLASSIFICATION_TYPE><NORAD_CAT_ID>36430</NORAD_CAT_ID><ELEMENT_SET_NO>999</ELEMENT_SET_NO><REV_AT_EPOCH>64215</REV_AT_EPOCH><BSTAR>.43298616E-3</BSTAR><MEAN_MOTION_DOT>.1097E-4</MEAN_MOTION_DOT><MEAN_MOTION_DDOT>0</MEAN_MOTION_DDOT></tleParameters></data></segment></body></omm>

</ndm>
