COSMOS 2251 DEB         
1 36366U 93036AYT 25325.28432735  .00006938  00000+0  24261-2 0  9998
2 36366  74.0659 312.2136 0090907 344.9179  14.9263 14.33036464859817
COSMOS 2251 DEB         
1 36367U 93036AYU 25323.61228454  .00001929  00000+0  12915-2 0  9993
2 36367  74.1005 270.4244 0262519 348.3619  11.1508 13.86169183572091
COSMOS 2251 DEB         
1 36369U 93036AYW 25324.67547117  .00011152  00000+0  17386-2 0  9998
2 36369  74.0302 113.7405 0013772 196.3273 163.7457 14.72923674855979
COSMOS 2251 DEB         
1 36371U 93036AYY 25318.04614923  .00030251  00000+0  50442-2 0  9996
2 36371  74.0138 217.2545 0012240 259.8935 100.0855 14.69794379710232
COSMOS 2251 DEB         
1 36379U 93036AZG 25320.40139391  .00001392  00000+0  48213-3 0  9996
2 36379  74.0133 355.2527 0044953 131.9658 244.5172 14.36020181644505
COSMOS 2251 DEB         
1 36385U 93036AZN 25324.65650353  .00011549  00000+0  15758-2 0  9992
2 36385  73.9702 197.6949 0141204  17.1314 343.4551 14.71961695847776
COSMOS 2251 DEB         
1 36420U 93036AZT 25323.74393172  .00000493  00000+0  17526-3 0  9996
2 36420  74.0365 317.7549 0017114  52.1039 127.6978 14.36869255847066
COSMOS 2251 DEB         
1 36430U 93036BAD 25322.78700247  .00001097  00000+0  43299-3 0  9992
2 36430  74.0031 152.0084 0096981 306.8501  52.3783 14.27716249642158
